[{"OBJECT_NAME":"STARLINK-5905","OBJECT_ID":"2023-042A","EPOCH":"2026-03-09T22:31:17.200128","MEAN_MOTION":15.02535341,"ECCENTRICITY":0.00013511,"INCLINATION":43.0043,"RA_OF_ASC_NODE":55.1176,"ARG_OF_PERICENTER":275.5762,"MEAN_ANOMALY":84.4926,"EPHEMERIS_TYPE":0,"CLASSIFICATION_TYPE":"U","NORAD_CAT_ID":55986,"ELEMENT_SET_NO":999,"REV_AT_EPOCH":16376,"BSTAR":2.0543944e-5,"MEAN_MOTION_DOT":7.4e-7,"MEAN_MOTION_DDOT":0},{"OBJECT_NAME":"FENGYUN 1C DEB","OBJECT_ID":"1999-025AXR","EPOCH":"2026-03-07T20:57:39.857472","MEAN_MOTION":14.72454359,"ECCENTRICITY":0.01891694,"INCLINATION":99.3486,"RA_OF_ASC_NODE":300.9473,"ARG_OF_PERICENTER":18.7054,"MEAN_ANOMALY":342.0979,"EPHEMERIS_TYPE":0,"CLASSIFICATION_TYPE":"U","NORAD_CAT_ID":30879,"ELEMENT_SET_NO":999,"REV_AT_EPOCH":63190,"BSTAR":0.0050043655,"MEAN_MOTION_DOT":0.00042311,"MEAN_MOTION_DDOT":0}]
